[{"OBJECT_NAME":"STARLINK-4464","OBJECT_ID":"2022-105X","EPOCH":"2026-03-09T14:51:26.225856","MEAN_MOTION":15.01264858,"ECCENTRICITY":0.0001935,"INCLINATION":97.6047,"RA_OF_ASC_NODE":310.1336,"ARG_OF_PERICENTER":87.5049,"MEAN_ANOMALY":272.6397,"EPHEMERIS_TYPE":0,"CLASSIFICATION_TYPE":"U","NORAD_CAT_ID":53669,"ELEMENT_SET_NO":999,"REV_AT_EPOCH":19322,"BSTAR":8.3915e-5,"MEAN_MOTION_DOT":1.02e-5,"MEAN_MOTION_DDOT":0},{"OBJECT_NAME":"QPS-SAR-8 (AMATERU-IV)","OBJECT_ID":"2024-149CC","EPOCH":"2026-03-09T16:54:01.213344","MEAN_MOTION":15.03026697,"ECCENTRICITY":0.0003873,"INCLINATION":97.6699,"RA_OF_ASC_NODE":148.7511,"ARG_OF_PERICENTER":93.15,"MEAN_ANOMALY":267.0168,"EPHEMERIS_TYPE":0,"CLASSIFICATION_TYPE":"U","NORAD_CAT_ID":60542,"ELEMENT_SET_NO":999,"REV_AT_EPOCH":8532,"BSTAR":0.00061811246,"MEAN_MOTION_DOT":8.268e-5,"MEAN_MOTION_DDOT":0}]
