STARLINK-4464           
1 53669U 22105X   26068.61905354  .00001020  00000+0  83915-4 0  9996
2 53669  97.6047 310.1336 0001935  87.5049 272.6397 15.01264858193225
QPS-SAR-8 (AMATERU-IV)  
1 60542U 24149CC  26068.70418071  .00008268  00000+0  61811-3 0  9990
2 60542  97.6699 148.7511 0003873  93.1500 267.0168 15.03026697 85328
